0 COSMOS 2493 (SKRL 756)
1 39490U 13078A   18087.22854786  .00000289  00000-0  28546-4 0  9998
2 39490  82.4159 270.3328 0017848 165.9557 194.2160 14.88294528230589
0 COSMOS 2493 (SKRL 756)
1 39490U 13078A   18087.49747875  .00000289  00000-0  28504-4 0  9991
2 39490  82.4159 270.0754 0017874 165.0800 195.0949 14.88294682230620
0 COSMOS 2493 (SKRL 756)
1 39490U 13078A   18087.56471144 +.00000288 +00000-0 +28434-4 0  9993
2 39490 082.4159 270.0111 0017882 164.8641 195.3116 14.88294724230330
0 COSMOS 2493 (SKRL 756)
1 39490U 13078A   18087.83364228  .00000294  00000-0  29061-4 0  9991
2 39490  82.4159 269.7537 0017905 164.0321 196.1465 14.88294869230673
0 COSMOS 2493 (SKRL 756)
1 39490U 13078A   18087.90087498 +.00000295 +00000-0 +29193-4 0  9997
2 39490 082.4159 269.6894 0017911 163.8033 196.3761 14.88294929230388
0 COSMOS 2493 (SKRL 756)
1 39490U 13078A   18088.16980577  .00000286  00000-0  28190-4 0  9992
2 39490  82.4159 269.4320 0017932 162.9437 197.2387 14.88295065230725
0 COSMOS 2493 (SKRL 756)
1 39490U 13078A   18088.50596928  .00000294  00000-0  29112-4 0  9997
2 39490  82.4159 269.1103 0017964 161.8456 198.3407 14.88295283230777
0 COSMOS 2493 (SKRL 756)
1 39490U 13078A   18088.57320196 +.00000296 +00000-0 +29262-4 0  9994
2 39490 082.4159 269.0459 0017970 161.6230 198.5641 14.88295326230483
0 COSMOS 2493 (SKRL 756)
1 39490U 13078A   18088.84213272  .00000282  00000-0  27751-4 0  9996
2 39490  82.4160 268.7886 0017993 160.7977 199.3923 14.88295414230826
0 COSMOS 2493 (SKRL 756)
1 39490U 13078A   18088.90936536 +.00000286 +00000-0 +28147-4 0  9992
2 39490 082.4160 268.7242 0017998 160.5795 199.6112 14.88295495230533
0 COSMOS 2493 (SKRL 756)
1 39490U 13078A   18089.17829605  .00000274  00000-0  26909-4 0  9991
2 39490  82.4160 268.4669 0018022 159.7181 200.4756 14.88295610230872
0 COSMOS 2493 (SKRL 756)
1 39490U 13078A   18089.51445947  .00000252  00000-0  24561-4 0  9990
2 39490  82.4160 268.1452 0018049 158.6270 201.5705 14.88295686230920
0 COSMOS 2493 (SKRL 756)
1 39490U 13078A   18089.58169214 +.00000255 +00000-0 +24880-4 0  9994
2 39490 082.4160 268.0809 0018055 158.4085 201.7897 14.88295716230630
0 COSMOS 2493 (SKRL 756)
1 39490U 13078A   18089.85062282  .00000253  00000-0  24631-4 0  9993
2 39490  82.4160 267.8235 0018076 157.5445 202.6568 14.88295831230973
